{"type": "FeatureCollection", "features": [ {"type": "Feature", "properties": {"norad_id": 38054, "name": "COSMOS 2251 DEB", "group": "cosmos-2251-debris", "lat": -42.295472482279855, "lon": 84.401843249433, "alt_km": 768.532739572187, "timestamp": "2025-12-22T20:43:46.246057+00:00", "meta": {"OBJECT_NAME": "COSMOS 2251 DEB", "OBJECT_ID": "1993-036BRL", "EPOCH": "2025-12-21T17:20:05.403264", "MEAN_MOTION": 13.62379948, "ECCENTRICITY": 0.03574852, "INCLINATION": 73.9527, "RA_OF_ASC_NODE": 251.089, "ARG_OF_PERICENTER": 227.3962, "MEAN_ANOMALY": 160.8212, "EPHEMERIS_TYPE": 0, "CLASSIFICATION_TYPE": "U", "NORAD_CAT_ID": 38054, "ELEMENT_SET_NO": 999, "REV_AT_EPOCH": 67302, "BSTAR": 0.0014427625, "MEAN_MOTION_DOT": 1.694e-05, "MEAN_MOTION_DDOT": 0}, "tle": {"line1": "1 38054U 93036BRL 25355.72228476  .00001694  00000+0  14428-2 0  9999", "line2": "2 38054  73.9527 251.0890 0357485 227.3962 160.8212 13.62379948673023"}}, "geometry": {"type": "Point", "coordinates": [84.401843249433, -42.295472482279855]}}, {"type": "Feature", "properties": {"norad_id": 38055, "name": "COSMOS 2251 DEB", "group": "cosmos-2251-debris", "lat": 11.66813073056581, "lon": -169.72774109579458, "alt_km": 616.3250698495431, "timestamp": "2025-12-22T20:43:46.246067+00:00", "meta": {"OBJECT_NAME": "COSMOS 2251 DEB", "OBJECT_ID": "1993-036BRM", "EPOCH": "2025-12-20T07:43:08.868288", "MEAN_MOTION": 14.77047435, "ECCENTRICITY": 0.00660367, "INCLINATION": 74.0077, "RA_OF_ASC_NODE": 191.8677, "ARG_OF_PERICENTER": 317.7505, "MEAN_ANOMALY": 222.1264, "EPHEMERIS_TYPE": 0, "CLASSIFICATION_TYPE": "U", "NORAD_CAT_ID": 38055, "ELEMENT_SET_NO": 999, "REV_AT_EPOCH": 60794, "BSTAR": 0.00044182386, "MEAN_MOTION_DOT": 3.197e-05, "MEAN_MOTION_DDOT": 0}, "tle": {"line1": "1 38055U 93036BRM 25354.32163042  .00003197  00000+0  44182-3 0  9993", "line2": "2 38055  74.0077 191.8677 0066036 317.7505 222.1264 14.77047435607943"}}, "geometry": {"type": "Point", "coordinates": [-169.72774109579458, 11.66813073056581]}}, {"type": "Feature", "properties": {"norad_id": 38060, "name": "COSMOS 2251 DEB", "group": "cosmos-2251-debris", "lat": 57.51519081689663, "lon": 69.16939380624234, "alt_km": 681.1742659576867, "timestamp": "2025-12-22T20:43:46.246077+00:00", "meta": {"OBJECT_NAME": "COSMOS 2251 DEB", "OBJECT_ID": "1993-036BRS", "EPOCH": "2025-12-22T11:59:35.078784", "MEAN_MOTION": 14.63909743, "ECCENTRICITY": 0.00586084, "INCLINATION": 74.043, "RA_OF_ASC_NODE": 276.5721, "ARG_OF_PERICENTER": 20.0647, "MEAN_ANOMALY": 340.2805, "EPHEMERIS_TYPE": 0, "CLASSIFICATION_TYPE": "U", "NORAD_CAT_ID": 38060, "ELEMENT_SET_NO": 999, "REV_AT_EPOCH": 72107, "BSTAR": 0.00053329406, "MEAN_MOTION_DOT": 2.829e-05, "MEAN_MOTION_DDOT": 0}, "tle": {"line1": "1 38060U 93036BRS 25356.49971156  .00002829  00000+0  53329-3 0  9996", "line2": "2 38060  74.0430 276.5721 0058608  20.0647 340.2805 14.63909743721078"}}, "geometry": {"type": "Point", "coordinates": [69.16939380624234, 57.51519081689663]}}, {"type": "Feature", "properties": {"norad_id": 38062, "name": "COSMOS 2251 DEB", "group": "cosmos-2251-debris", "lat": 35.38796616054246, "lon": 78.26280192064145, "alt_km": 581.1759479709608, "timestamp": "2025-12-22T20:43:46.246087+00:00", "meta": {"OBJECT_NAME": "COSMOS 2251 DEB", "OBJECT_ID": "1993-036BRU", "EPOCH": "2025-12-20T12:40:12.328608", "MEAN_MOTION": 14.95206267, "ECCENTRICITY": 0.00129431, "INCLINATION": 74.0088, "RA_OF_ASC_NODE": 274.7346, "ARG_OF_PERICENTER": 42.7602, "MEAN_ANOMALY": 131.9089, "EPHEMERIS_TYPE": 0, "CLASSIFICATION_TYPE": "U", "NORAD_CAT_ID": 38062, "ELEMENT_SET_NO": 999, "REV_AT_EPOCH": 63146, "BSTAR": 0.0014745207, "MEAN_MOTION_DOT": 0.00016237, "MEAN_MOTION_DDOT": 0}, "tle": {"line1": "1 38062U 93036BRU 25354.52792047  .00016237  00000+0  14745-2 0  9996", "line2": "2 38062  74.0088 274.7346 0012943  42.7602 131.9089 14.95206267631464"}}, "geometry": {"type": "Point", "coordinates": [78.26280192064145, 35.38796616054246]}}, {"type": "Feature", "properties": {"norad_id": 38064, "name": "COSMOS 2251 DEB", "group": "cosmos-2251-debris", "lat": 74.01001121919312, "lon": -166.24190299695587, "alt_km": 720.1472775433976, "timestamp": "2025-12-22T20:43:46.246097+00:00", "meta": {"OBJECT_NAME": "COSMOS 2251 DEB", "OBJECT_ID": "1993-036BRW", "EPOCH": "2025-12-21T14:38:27.144960", "MEAN_MOTION": 14.56367522, "ECCENTRICITY": 0.0047142, "INCLINATION": 74.0231, "RA_OF_ASC_NODE": 107.2956, "ARG_OF_PERICENTER": 225.3304, "MEAN_ANOMALY": 134.4015, "EPHEMERIS_TYPE": 0, "CLASSIFICATION_TYPE": "U", "NORAD_CAT_ID": 38064, "ELEMENT_SET_NO": 999, "REV_AT_EPOCH": 71994, "BSTAR": 0.00076532, "MEAN_MOTION_DOT": 3.417e-05, "MEAN_MOTION_DDOT": 0}, "tle": {"line1": "1 38064U 93036BRW 25355.61003640  .00003417  00000+0  76532-3 0  9992", "line2": "2 38064  74.0231 107.2956 0047142 225.3304 134.4015 14.56367522719946"}}, "geometry": {"type": "Point", "coordinates": [-166.24190299695587, 74.01001121919312]}}, {"type": "Feature", "properties": {"norad_id": 38067, "name": "COSMOS 2251 DEB", "group": "cosmos-2251-debris", "lat": -60.561864774400156, "lon": 105.64904622421965, "alt_km": 740.8902142565948, "timestamp": "2025-12-22T20:43:46.246107+00:00", "meta": {"OBJECT_NAME": "COSMOS 2251 DEB", "OBJECT_ID": "1993-036BRZ", "EPOCH": "2025-12-20T00:18:38.290752", "MEAN_MOTION": 14.61151533, "ECCENTRICITY": 0.00696951, "INCLINATION": 74.0171, "RA_OF_ASC_NODE": 260.5817, "ARG_OF_PERICENTER": 46.2502, "MEAN_ANOMALY": 329.5601, "EPHEMERIS_TYPE": 0, "CLASSIFICATION_TYPE": "U", "NORAD_CAT_ID": 38067, "ELEMENT_SET_NO": 999, "REV_AT_EPOCH": 62662, "BSTAR": 0.00024256948, "MEAN_MOTION_DOT": 1.204e-05, "MEAN_MOTION_DDOT": 0}, "tle": {"line1": "1 38067U 93036BRZ 25354.01294318  .00001204  00000+0  24257-3 0  9991", "line2": "2 38067  74.0171 260.5817 0069695  46.2502 329.5601 14.61151533626627"}}, "geometry": {"type": "Point", "coordinates": [105.64904622421965, -60.561864774400156]}}, {"type": "Feature", "properties": {"norad_id": 38068, "name": "COSMOS 2251 DEB", "group": "cosmos-2251-debris", "lat": 6.282393959982578, "lon": 107.8493853646105, "alt_km": 789.3292759199812, "timestamp": "2025-12-22T20:43:46.246117+00:00", "meta": {"OBJECT_NAME": "COSMOS 2251 DEB", "OBJECT_ID": "1993-036BSA", "EPOCH": "2025-11-26T00:12:22.263264", "MEAN_MOTION": 14.35960004, "ECCENTRICITY": 0.00240903, "INCLINATION": 74.0219, "RA_OF_ASC_NODE": 338.9788, "ARG_OF_PERICENTER": 72.1007, "MEAN_ANOMALY": 288.2769, "EPHEMERIS_TYPE": 0, "CLASSIFICATION_TYPE": "U", "NORAD_CAT_ID": 38068, "ELEMENT_SET_NO": 999, "REV_AT_EPOCH": 66406, "BSTAR": 0.00028750999, "MEAN_MOTION_DOT": 8.11e-06, "MEAN_MOTION_DDOT": 0}, "tle": {"line1": "1 38068U 93036BSA 25330.00859101  .00000811  00000+0  28751-3 0  9998", "line2": "2 38068  74.0219 338.9788 0024090  72.1007 288.2769 14.35960004664064"}}, "geometry": {"type": "Point", "coordinates": [107.8493853646105, 6.282393959982578]}}, {"type": "Feature", "properties": {"norad_id": 38197, "name": "COSMOS 2251 DEB", "group": "cosmos-2251-debris", "lat": 60.83260761891917, "lon": 126.08213405046452, "alt_km": 651.0319642868872, "timestamp": "2025-12-22T20:43:46.246126+00:00", "meta": {"OBJECT_NAME": "COSMOS 2251 DEB", "OBJECT_ID": "1993-036BSM", "EPOCH": "2025-12-21T16:31:05.952576", "MEAN_MOTION": 14.74412737, "ECCENTRICITY": 0.01248795, "INCLINATION": 73.938, "RA_OF_ASC_NODE": 339.4684, "ARG_OF_PERICENTER": 214.7346, "MEAN_ANOMALY": 144.563, "EPHEMERIS_TYPE": 0, "CLASSIFICATION_TYPE": "U", "NORAD_CAT_ID": 38197, "ELEMENT_SET_NO": 999, "REV_AT_EPOCH": 85887, "BSTAR": 0.0023694699, "MEAN_MOTION_DOT": 0.00017843, "MEAN_MOTION_DDOT": 0}, "tle": {"line1": "1 38197U 93036BSM 25355.68826334  .00017843  00000+0  23695-2 0  9998", "line2": "2 38197  73.9380 339.4684 0124879 214.7346 144.5630 14.74412737858874"}}, "geometry": {"type": "Point", "coordinates": [126.08213405046452, 60.83260761891917]}}, {"type": "Feature", "properties": {"norad_id": 38199, "name": "COSMOS 2251 DEB", "group": "cosmos-2251-debris", "lat": -52.30773896476281, "lon": -112.57973421497024, "alt_km": 1037.035915320319, "timestamp": "2025-12-22T20:43:46.246136+00:00", "meta": {"OBJECT_NAME": "COSMOS 2251 DEB", "OBJECT_ID": "1993-036BSP", "EPOCH": "2025-12-21T11:53:06.796320", "MEAN_MOTION": 13.64805558, "ECCENTRICITY": 0.03700621, "INCLINATION": 73.9558, "RA_OF_ASC_NODE": 47.8032, "ARG_OF_PERICENTER": 332.5446, "MEAN_ANOMALY": 25.6532, "EPHEMERIS_TYPE": 0, "CLASSIFICATION_TYPE": "U", "NORAD_CAT_ID": 38199, "ELEMENT_SET_NO": 999, "REV_AT_EPOCH": 61141, "BSTAR": 0.00052194647, "MEAN_MOTION_DOT": 6.47e-06, "MEAN_MOTION_DDOT": 0}, "tle": {"line1": "1 38199U 93036BSP 25355.49521755  .00000647  00000+0  52195-3 0  9990", "line2": "2 38199  73.9558  47.8032 0370062 332.5446  25.6532 13.64805558611419"}}, "geometry": {"type": "Point", "coordinates": [-112.57973421497024, -52.30773896476281]}}, {"type": "Feature", "properties": {"norad_id": 38208, "name": "COSMOS 2251 DEB", "group": "cosmos-2251-debris", "lat": 58.25049380145424, "lon": 86.42033793909721, "alt_km": 609.734522328531, "timestamp": "2025-12-22T20:43:46.246146+00:00", "meta": {"OBJECT_NAME": "COSMOS 2251 DEB", "OBJECT_ID": "1993-036BSY", "EPOCH": "2025-12-22T10:48:57.448224", "MEAN_MOTION": 14.84216991, "ECCENTRICITY": 8.867e-05, "INCLINATION": 74.0048, "RA_OF_ASC_NODE": 59.6241, "ARG_OF_PERICENTER": 125.3536, "MEAN_ANOMALY": 250.7467, "EPHEMERIS_TYPE": 0, "CLASSIFICATION_TYPE": "U", "NORAD_CAT_ID": 38208, "ELEMENT_SET_NO": 999, "REV_AT_EPOCH": 71303, "BSTAR": 0.0024430964, "MEAN_MOTION_DOT": 0.00020478, "MEAN_MOTION_DDOT": 0}, "tle": {"line1": "1 38208U 93036BSY 25356.45066491  .00020478  00000+0  24431-2 0  9994", "line2": "2 38208  74.0048  59.6241 0000886 125.3536 250.7467 14.84216991713030"}}, "geometry": {"type": "Point", "coordinates": [86.42033793909721, 58.25049380145424]}}]}